{
    "links": {
        "self": "http://www.neowsapp.com/rest/v1/neo/3766657?api_key=iIulBulltgU6a56xZRHN4H3l9WmuAYTsLGpBGhQ2"
    },
    "id": "3766657",
    "neo_reference_id": "3766657",
    "name": "(2017 AD21)",
    "designation": "2017 AD21",
    "nasa_jpl_url": "http://ssd.jpl.nasa.gov/sbdb.cgi?sstr=3766657",
    "absolute_magnitude_h": 27.025,
    "estimated_diameter": {
        "kilometers": {
            "estimated_diameter_min": 0.010460561,
            "estimated_diameter_max": 0.0233905255
        },
        "meters": {
            "estimated_diameter_min": 10.4605610056,
            "estimated_diameter_max": 23.3905254913
        },
        "miles": {
            "estimated_diameter_min": 0.0064998893,
            "estimated_diameter_max": 0.0145341942
        },
        "feet": {
            "estimated_diameter_min": 34.3194269697,
            "estimated_diameter_max": 76.740571653
        }
    },
    "is_potentially_hazardous_asteroid": false,
    "close_approach_data": [
        {
            "close_approach_date": "2016-12-12",
            "close_approach_date_full": "2016-Dec-12 22:24",
            "epoch_date_close_approach": 1481581440000,
            "relative_velocity": {
                "kilometers_per_second": "3.7686921351",
                "kilometers_per_hour": "13567.2916865215",
                "miles_per_hour": "8430.1874371055"
            },
            "miss_distance": {
                "astronomical": "0.0337977378",
                "lunar": "13.1473200042",
                "kilometers": "5056069.585698486",
                "miles": "3141695.9581756668"
            },
            "orbiting_body": "Earth"
        }
    ],
    "orbital_data": {
        "orbit_id": "2",
        "orbit_determination_date": "2017-04-06 08:20:58",
        "first_observation_date": "2017-01-03",
        "last_observation_date": "2017-01-04",
        "data_arc_in_days": 1,
        "observations_used": 6,
        "orbit_uncertainty": "9",
        "minimum_orbit_intersection": ".032333",
        "jupiter_tisserand_invariant": "4.656",
        "epoch_osculation": "2457757.5",
        "eccentricity": ".2860670607901215",
        "semi_major_axis": "1.423721184951448",
        "inclination": "3.212937482500636",
        "ascending_node_longitude": "263.2012502723173",
        "orbital_period": "620.4915162702127",
        "perihelion_distance": "1.016441450187758",
        "perihelion_argument": "183.2776541402675",
        "aphelion_distance": "1.831000919715137",
        "perihelion_time": "2457739.935368871485",
        "mean_anomaly": "10.19073918089112",
        "mean_motion": ".5801852089194827",
        "equinox": "J2000",
        "orbit_class": {
            "orbit_class_type": "APO",
            "orbit_class_description": "Near-Earth asteroid orbits which cross the Earth’s orbit similar to that of 1862 Apollo",
            "orbit_class_range": "a (semi-major axis) > 1.0 AU; q (perihelion) < 1.017 AU"
        }
    },
    "is_sentry_object": false
}